#dP2024  2 14  0  0  0.00000000     289 d+D   IGS20 FIT AIUB
## 2301 259200.00000000   300.00000000 60354 0.0000000000000
+  120   G01G02G03G04G05G06G07G08G09G10G11G12G13G14G15G16G17
+        G18G19G20G21G22G23G24G25G26G27G28G29G30G31G32R01R02
+        R03R04R05R07R08R09R11R12R13R14R15R16R17R18R19R20R21
+        R22R24R26E02E03E04E05E07E08E09E10E11E12E13E14E15E18
+        E19E21E24E25E26E27E30E31E33E34E36C06C07C08C09C10C11
+        C12C13C14C16C19C20C21C22C23C24C25C26C27C28C29C30C32
+        C33C34C35C36C37C38C39C40C41C42C43C44C45C46C48J02J03
+        J04  0  0  0  0  0  0  0  0  0  0  0  0  0  0  0  0
++         5  5  5  5  5  5  5  5  5  5  5  5  5  5  5  5  5
++         5  5  5  5  5  5  5  5  5  5  5  5  5  5  5  5  5
++         5  5  5  5  5  5  5  5  5  5  5  5  5  5  5  5  5
++         5  5  5  5  5  5  5  5  5  5  5  5  5  5  5  5  5
++         5  5  5  5  5  5  5  5  5  5  5  5  5  5  5  5  5
++         5  5  5  5  5  5  5  5  5  5  5  5  5  5  5  5  5
++         5  5  5  5  5  5  5  5  5  5  5  5  5  5  5  5  6
++         5  0  0  0  0  0  0  0  0  0  0  0  0  0  0  0  0
%c M  cc GPS ccc cccc cccc cccc cccc ccccc ccccc ccccc ccccc
%c cc cc ccc ccc cccc cccc cccc cccc ccccc ccccc ccccc ccccc
%f  1.2500000  1.025000000  0.00000000000  0.000000000000000
%f  0.0000000  0.000000000  0.00000000000  0.000000000000000
%i    0    0    0    0      0      0      0      0         0
%i    0    0    0    0      0      0      0      0         0
/* Center for Orbit Determination in Europe (CODE)                              
/* MGEX orbits and clocks for year-day 2024-0450                                
/* Middle day of a 3-day long-arc multi-GNSS solution                           
/* Systems considered: GPS/GLONASS/Galileo/BeiDou/QZSS                          
/* Product reference - DOI 10.48350/185742                                      
/* PCV:IGS20      OL/AL:FES2014b NONE     YN ORB:CoN CLK:CoN                    
*  2024  2 14  4 20  0.00000000
PG01    570.134636  15411.983228 -21918.591851    169.470701
PG02  -7619.169162  18024.445931 -17345.742867   -485.756467
PG03   5258.481482  18721.647734 -18290.307525    191.879544
PG04  -1405.601364  26299.249255   2820.982079    291.194825
PG05   7346.096683 -13029.200334  21772.459906   -161.738773
PG06  24730.929450  -4928.450878  -8440.794899    407.864688
PG07  13780.585827  10122.197940  20920.698856    -61.471647
PG08  -5835.375300  24925.781575   6079.455455   -166.934633
PG09   8466.089733  20801.119428  14054.869129     91.498487
PG10 -23375.334098  -9750.659447  -8322.197186      0.368522
PG11  23506.990767 -11881.887917   3240.592880   -575.112686
PG12  -3235.621442 -19187.557784 -18395.811783   -477.786206
PG13  13283.277688 -19060.416098  12463.155631    625.348283
PG14  22926.368616  12635.523561  -5034.899435    325.211468
PG15   2748.665232 -25577.936344   5661.227950    127.497041
PG16 -14149.947579   7204.694424  21028.294167   -363.092817
PG17  13150.583341   8674.893943 -20934.289030    717.055625
PG18 -14430.710277  -8878.041759  20516.050120   -555.126469
PG19  15435.889811  -1204.662329 -21727.128175    440.391586
PG20  18876.807608  -5197.368367  17934.012380    387.578082
PG21 -12165.583702  18146.223511 -13894.771916    135.005485
PG22  21981.008073   7717.234475 -12053.852253     31.558171
PG23 -20569.401322 -16592.739864   3560.902341    155.765784
PG24   8576.344525 -19089.731185 -16524.211129   -431.382827
PG25 -14261.395958 -19646.933001 -11422.905905    488.521211
PG26 -21785.641828    198.574327  15284.691283    190.426814
PG27 -12621.114663  16463.549006  16056.419547     -3.852307
PG28 -23926.454595   3365.943427 -11042.743213   -130.399940
PG29  -5296.429821 -22356.501246  13187.378619   -607.015644
PG30  22000.338953   2153.663573  15043.299415   -432.840034
PG31 -25055.942870   9278.191302  -2047.702379   -227.760480
PG32 -14640.407274  -4713.744179 -21470.300774   -611.509487
PR01 -12525.703695  -5050.631972 -21631.272383     77.114597
PR02  -6398.805416  12962.537836 -20948.892501    -22.478322
PR03   3229.914407  23909.161287  -8138.314360     94.466971
PR04  10529.268525  21510.817946   8792.223546    223.340371
PR05  12320.946430   7567.304540  21022.878980    126.868884
PR07  -3628.113972 -24173.347092   7427.932904     75.763577
PR08 -10754.692998 -21369.701717  -8837.024170    -74.416492
PR09  17050.487142  -5737.075468 -18107.408853    169.866765
PR11 -16741.187728 -11267.816554 -15587.696018     34.392268
PR12 -24996.311703  -4290.816044   2826.910777     36.715828
PR13 -18862.336148   4131.155120  16649.466628    -44.343620
PR14    512.023206  11457.375798  22789.610136     26.052692
PR15  17830.054559  11194.258086  14417.026579     82.200099
PR16  25029.217032   4332.977557  -2508.898072     23.257003
PR17  -8956.580712  19016.803008 -14463.252556     61.065769
PR18   4506.585744  10191.382152 -22921.459391    127.276316
PR19  15046.495185  -1863.963627 -20510.909935   -265.744478
PR20  19208.122843 -16486.041759  -3338.496254   -108.246352
PR21   8897.828837 -18814.833515  14737.281932    -76.829150
PR22  -5360.211608  -9885.774450  22925.310058    107.995392
PR24 -18425.532192  17428.954513   2781.346873    -43.848032
PR26 -10619.105483 -21743.574893  -8011.655583   -198.485559
PE02  12881.506886 -11219.121461 -24183.901625    103.243160
PE03  12489.599930 -22708.226155  14291.977937    -93.697454
PE04   -359.625204  29329.289812   3984.346222   -326.833498
PE05  17150.488001  -2948.220069  23949.543523   4719.857170
PE07 -11612.202473 -19051.604094 -19441.411523   -103.668483
PE08    849.969895 -29397.730992  -3311.109108   -223.576058
PE09  11450.701275  19154.498444  19455.217141   -335.372825
PE10   6593.426106  14569.615024 -24908.788698   -601.794922
PE11  17204.686539   8379.024735 -22592.431608   3247.699950
PE12  -3771.844647  18018.543023 -23170.766814   -905.534101
PE13 -16546.437424  -8776.871339  22925.487260    -20.178176
PE14  18882.852224  -3691.555708 -21456.453828     38.853351
PE15   4418.427796 -18101.284689  23014.174780    -85.697691
PE18 -14358.606748  21886.900160  12509.908408    324.501666
PE19 -13483.514213  20907.866093 -16025.652384   -618.802815
PE21 -24731.471116  -4943.145350  15490.886142   -578.919992
PE24  22368.251834  19138.591643   2936.426733   -597.165258
PE25  24839.505636   5264.001313 -15209.859501      0.862823
PE26 -27630.676343   5910.380586   8819.499114    368.215132
PE27 -22630.735718 -18914.206976  -2599.641284   -274.230930
PE30  -6895.134643 -21589.344099 -19067.346605      4.843030
PE31   7208.582851  21566.563883  18943.924428    -15.957135
PE33 -22844.943186  16473.205556  -9096.045282      7.561687
PE34  22450.007625 -16722.326797   9619.854334    -94.526245
PE36  27513.083618  -5539.383129  -9425.091735   -185.666670
PC06 -18870.010178  32271.230694  19259.456423    108.865637
PC07  -4636.741949  38224.623536  17486.257143   -798.311250
PC08  -5615.237330  19591.747034 -36901.159642     39.660963
PC09 -10822.843299  30906.849405  26643.082515   -487.471604
PC10   1230.646183  40757.363182  12113.653746     85.820855
PC11  17914.408717 -20985.591815  -4090.794428    409.582966
PC12  19264.068622  -5373.761877 -19423.352265    770.390665
PC13   3679.284267  23202.119320 -34791.899403    417.145033
PC14   9245.722264 -14573.731637  21933.219993    186.093962
PC16 -20673.898317  32053.344328  17848.261422   -338.649303
PC19  -1880.385176  21835.159825 -17260.788384   -927.063837
PC20 -14028.439265   6859.857829 -23112.382322   -160.942710
PC21  18775.636135  13760.889971  15427.336512   -962.218843
PC22  12018.026253  25174.693737  -1156.658239   -110.539848
PC23  -9653.880459 -15654.998316 -20995.196708   -781.343270
PC24  26077.552291  -4973.321808  -8582.309972    882.645577
PC25  10676.058884 -14914.430245 -21041.268867    325.662814
PC26  25790.731235   6599.253018   8289.326659   -248.948936
PC27 -16150.400310  -3933.115508  22395.033321    270.869026
PC28  -4285.982139 -18985.289015  20005.958560    206.033945
PC29 -11584.165467  25033.641548  -4211.197166    241.491022
PC30 -19722.770877  14315.783080  13564.871235    -25.028378
PC32 -18861.851293 -13687.526766 -15321.029299   -567.369855
PC33   1885.254521 -21767.827073  17357.045687   -948.670905
PC34  19577.646867 -15642.087263 -12317.503693    368.868936
PC35   5005.745837  18888.473956 -19918.776641    434.069585
PC36 -11593.575376  14503.830324  20848.521442    -15.745496
PC37 -25451.047131  -7466.650267  -8716.802688   -936.214961
PC38 -14718.519631  18620.101999 -34809.145385    136.660586
PC39 -24485.467740  32432.631307  10836.404982     -7.151506
PC40  -9026.851661  35415.746106  21248.192036    -56.442501
PC41 -11561.158082 -25312.861910   2049.306528   -890.667077
PC42  14946.833215  -5157.658245  23042.465177   -454.670719
PC43  12233.007205 -24879.195843   3295.196019     60.321853
PC44  16361.597455   3535.352596 -22345.663469    383.880802
PC45   9849.569303  15514.117586  20983.628565    -70.024493
PC46 -25731.813559   5410.221548   9394.049746   -123.725231
PC48  -9277.660889  15001.377537 -21612.137293     79.481974
PJ02 -27238.458799  21012.998542  29494.227598     -1.967943
PJ03 -35125.938099  23063.844506    622.006167     -0.222404
PJ04 -17932.707032  28270.960932 -20514.605524     50.919620
EOF
